STARLINK-1680
1 26558C 20070AC  21325.17984929 -.00001401  00000-0 -93845-4 0  3253
2 26558  53.0534   7.4270 0001318  68.9253  25.7127 15.06402514    19
